NORAD_CAT_ID,OBJECT_NAME,OBJECT_TYPE,EPOCH,MEAN_MOTION,ECCENTRICITY,INCLINATION,RA_OF_ASC_NODE,ARG_OF_PERICENTER,MEAN_ANOMALY,BSTAR,MEAN_MOTION_DOT,MEAN_MOTION_DDOT,TLE_LINE0,TLE_LINE1,TLE_LINE2,SEMIMAJOR_AXIS,PERIOD,APOGEE,PERIGEE,DECAYED
55949.0,STARLINK-5899,PAYLOAD,2024-01-20 13:32:32,14.98333172,0.000274,70.0,69.0761,266.2456,93.8389,1.8185e-05,1.24e-06,0.0,0 STARLINK-5899,1 55949U 23037AM  24020.56426777  .00000124  00000-0  18185-4 0  9993,2 55949  70.0000  69.0761 0002740 266.2456  93.8389 14.98333172 47769,6950.183,96.107,573.952,570.144,0.0
55949.0,STARLINK-5899,PAYLOAD,2024-01-21 05:33:53,14.98328908,0.0002723,70.0,67.3925,267.7272,92.3575,3.7124e-05,3.5e-06,0.0,0 STARLINK-5899,1 55949U 23037AM  24021.23186919  .00000350  00000-0  37124-4 0  9994,2 55949  70.0000  67.3925 0002723 267.7272  92.3575 14.98328908 47868,6950.196,96.107,573.954,570.169,0.0
55949.0,STARLINK-5899,PAYLOAD,2024-01-21 11:58:25,14.98329457,0.0002702,70.0,66.7191,266.8823,93.2027,4.1204e-05,3.99e-06,0.0,0 STARLINK-5899,1 55949U 23037AM  24021.49890873  .00000399  00000-0  41204-4 0  9990,2 55949  70.0000  66.7191 0002702 266.8823  93.2027 14.98329457 48240,6950.195,96.107,573.938,570.182,0.0
55949.0,STARLINK-5899,PAYLOAD,2024-01-22 07:12:02,14.9833059,0.0002677,70.0,64.699,267.0955,92.9897,-1.2988e-05,-2.48e-06,0.0,0 STARLINK-5899,1 55949U 23037AM  24022.30002888 -.00000248  00000-0 -12988-4 0  9994,2 55949  70.0000  64.6990 0002677 267.0955  92.9897 14.98330590 48021,6950.191,96.107,573.917,570.196,0.0
55949.0,STARLINK-5899,PAYLOAD,2024-01-22 12:00:26,14.98330891,0.0002667,70.0,64.1941,266.8757,93.2097,-8.1399e-06,-1.9e-06,0.0,0 STARLINK-5899,1 55949U 23037AM  24022.50030841 -.00000190  00000-0 -81399-5 0  9995,2 55949  70.0000  64.1941 0002667 266.8757  93.2097 14.98330891 48398,6950.19,96.107,573.909,570.202,0.0
55949.0,STARLINK-5899,PAYLOAD,2024-01-23 05:37:55,14.98328874,0.0002685,69.9999,62.3422,266.0861,93.9991,-1.3149e-05,-2.5e-06,0.0,0 STARLINK-5899,1 55949U 23037AM  24023.23466931 -.00000250  00000-0 -13149-4 0  9993,2 55949  69.9999  62.3422 0002685 266.0861  93.9991 14.98328874 48167,6950.196,96.107,573.928,570.195,0.0
55949.0,STARLINK-5899,PAYLOAD,2024-01-23 12:02:27,14.98331217,0.0002623,70.0,61.669,264.0357,96.0504,1.7573e-05,1.17e-06,0.0,0 STARLINK-5899,1 55949U 23037AM  24023.50170688  .00000117  00000-0  17573-4 0  9999,2 55949  70.0000  61.6690 0002623 264.0357  96.0504 14.98331217 48543,6950.189,96.107,573.877,570.231,0.0
55949.0,STARLINK-5899,PAYLOAD,2024-01-24 12:04:28,14.98326223,0.0002652,70.0,59.1436,262.9049,97.1809,-2.4662e-05,-3.87e-06,0.0,0 STARLINK-5899,1 55949U 23037AM  24024.50311128 -.00000387  00000-0 -24662-4 0  9994,2 55949  70.0000  59.1436 0002652 262.9049  97.1809 14.98326223 48697,6950.205,96.107,573.913,570.226,0.0
55949.0,STARLINK-5899,PAYLOAD,2024-01-25 04:05:48,14.98333189,0.0002822,69.9997,57.4602,264.7966,95.2871,8.6658e-06,1e-07,0.0,0 STARLINK-5899,1 55949U 23037AM  24025.17070585  .00000010  00000-0  86658-5 0  9992,2 55949  69.9997  57.4602 0002822 264.7966  95.2871 14.98333189 48790,6950.183,96.107,574.009,570.087,0.0
55949.0,STARLINK-5899,PAYLOAD,2024-01-25 12:06:29,14.98333269,0.0002824,69.9997,56.6186,265.1342,94.9495,1.0785e-05,3.6e-07,0.0,0 STARLINK-5899,1 55949U 23037AM  24025.50450520  .00000036  00000-0  10785-4 0  9995,2 55949  69.9997  56.6186 0002824 265.1342  94.9495 14.98333269 48509,6950.183,96.107,574.011,570.085,0.0
55949.0,STARLINK-5899,PAYLOAD,2024-01-26 04:07:49,14.98335141,0.0002965,69.9995,54.9351,267.7266,92.3553,6.4842e-05,6.81e-06,0.0,0 STARLINK-5899,1 55949U 23037AM  24026.17210054  .00000681  00000-0  64842-4 0  9994,2 55949  69.9995  54.9351 0002965 267.7266  92.3553 14.98335141 48947,6950.177,96.107,574.103,569.981,0.0
55949.0,STARLINK-5899,PAYLOAD,2024-01-26 12:08:29,14.98337921,0.0002912,69.9996,54.0934,267.8277,92.2548,9.3883e-05,1.028e-05,0.0,0 STARLINK-5899,1 55949U 23037AM  24026.50589660  .00001028  00000-0  93883-4 0  9996,2 55949  69.9996  54.0934 0002912 267.8277  92.2548 14.98337921 48650,6950.168,96.106,574.057,570.01,0.0
55949.0,STARLINK-5899,PAYLOAD,2024-01-27 04:09:50,14.98326676,0.0002623,70.0001,52.4106,261.437,98.6492,-5.1473e-05,-7.07e-06,0.0,0 STARLINK-5899,1 55949U 23037AM  24027.17350679 -.00000707  00000-0 -51473-4 0  9990,2 55949  70.0001  52.4106 0002623 261.4370  98.6492 14.98326676 49098,6950.203,96.107,573.891,570.245,0.0
55949.0,STARLINK-5899,PAYLOAD,2024-01-27 10:34:23,14.98324006,0.000269,70.0001,51.7375,264.3858,95.6995,-8.3636e-05,-1.091e-05,0.0,0 STARLINK-5899,1 55949U 23037AM  24027.44055008 -.00001091  00000-0 -83636-4 0  9991,2 55949  70.0001  51.7375 0002690 264.3858  95.6995 14.98324006 48791,6950.211,96.107,573.946,570.207,0.0
55949.0,STARLINK-5899,PAYLOAD,2024-01-28 04:11:51,14.98329764,0.0002975,69.9994,49.885,268.2019,91.8799,-8.9118e-05,-1.156e-05,0.0,0 STARLINK-5899,1 55949U 23037AM  24028.17490690 -.00001156  00000-0 -89118-4 0  9995,2 55949  69.9994  49.8850 0002975 268.2019  91.8799 14.98329764 49240,6950.194,96.107,574.126,569.991,0.0
55949.0,STARLINK-5899,PAYLOAD,2024-01-28 10:36:24,14.98327523,0.0002642,70.0004,49.2135,256.9181,103.1683,-4.2624e-05,-6.01e-06,0.0,0 STARLINK-5899,1 55949U 23037AM  24028.44194697 -.00000601  00000-0 -42624-4 0  9998,2 55949  70.0004  49.2135 0002642 256.9181 103.1683 14.98327523 48946,6950.201,96.107,573.902,570.229,0.0
55949.0,STARLINK-5899,PAYLOAD,2024-01-29 04:13:52,14.98326339,0.0002949,69.9995,47.36,267.1142,92.9679,6.522e-05,6.85e-06,0.0,0 STARLINK-5899,1 55949U 23037AM  24029.17630529  .00000685  00000-0  65220-4 0  9995,2 55949  69.9995  47.3600 0002949 267.1142  92.9679 14.98326339 49393,6950.204,96.107,574.119,570.02,0.0
55949.0,STARLINK-5899,PAYLOAD,2024-01-29 10:38:24,14.9832908,0.0002857,69.9998,46.6872,265.2214,94.8619,9.2773e-05,1.014e-05,0.0,0 STARLINK-5899,1 55949U 23037AM  24029.44334309  .00001014  00000-0  92773-4 0  9992,2 55949  69.9998  46.6872 0002857 265.2214  94.8619 14.98329080 49094,6950.196,96.107,574.046,570.075,0.0
55949.0,STARLINK-5899,PAYLOAD,2024-01-30 04:15:53,14.98328861,0.0002763,70.0,44.8356,261.3548,98.7298,3.7129e-05,3.5e-06,0.0,0 STARLINK-5899,1 55949U 23037AM  24030.17770499  .00000350  00000-0  37129-4 0  9994,2 55949  70.0000  44.8356 0002763 261.3548  98.7298 14.98328861 49543,6950.196,96.107,573.982,570.141,0.0
55949.0,STARLINK-5899,PAYLOAD,2024-01-30 10:40:26,14.98328415,0.0002786,70.0001,44.1622,262.5141,97.5701,2.6976e-05,2.29e-06,0.0,0 STARLINK-5899,1 55949U 23037AM  24030.44474576  .00000229  00000-0  26976-4 0  9994,2 55949  70.0001  44.1622 0002786 262.5141  97.5701 14.98328415 49248,6950.198,96.107,573.999,570.126,0.0
55949.0,STARLINK-5899,PAYLOAD,2024-01-31 04:17:54,14.98331631,0.0002779,70.0001,42.3109,261.9202,98.1642,-1.1836e-05,-2.34e-06,0.0,0 STARLINK-5899,1 55949U 23037AM  24031.17910432 -.00000234  00000-0 -11836-4 0  9998,2 55949  70.0001  42.3109 0002779 261.9202  98.1642 14.98331631 49695,6950.188,96.107,573.984,570.121,0.0
55949.0,STARLINK-5899,PAYLOAD,2024-01-31 10:42:26,14.98330198,0.0002837,70.0,41.6372,265.3521,94.7314,-2.8974e-05,-4.39e-06,0.0,0 STARLINK-5899,1 55949U 23037AM  24031.44614570 -.00000439  00000-0 -28974-4 0  9990,2 55949  70.0000  41.6372 0002837 265.3521  94.7314 14.98330198 49397,6950.192,96.107,574.029,570.086,0.0
55949.0,STARLINK-5899,PAYLOAD,2024-02-01 10:44:27,14.98331511,0.0002889,69.9999,39.1114,267.3854,92.6974,1.8749e-05,1.31e-06,0.0,0 STARLINK-5899,1 55949U 23037AM  24032.44754294  .00000131  00000-0  18749-4 0  9995,2 55949  69.9999  39.1114 0002889 267.3854  92.6974 14.98331511 49888,6950.188,96.107,574.061,570.045,0.0
55949.0,STARLINK-5899,PAYLOAD,2024-02-02 10:46:28,14.98330911,0.0002838,70.0,36.5864,269.0047,91.0786,2.8563e-05,2.48e-06,0.0,0 STARLINK-5899,1 55949U 23037AM  24033.44894246  .00000248  00000-0  28563-4 0  9992,2 55949  70.0000  36.5864 0002838 269.0047  91.0786 14.98330911 50030,6950.19,96.107,574.028,570.083,0.0
55949.0,STARLINK-5899,PAYLOAD,2024-02-03 10:48:29,14.98327485,0.0002783,70.0002,34.0614,266.5133,93.5708,-1.9487e-05,-3.25e-06,0.0,0 STARLINK-5899,1 55949U 23037AM  24034.45034593 -.00000325  00000-0 -19487-4 0  9998,2 55949  70.0002  34.0614 0002783 266.5133  93.5708 14.98327485 49845,6950.201,96.107,574.0,570.131,0.0
55949.0,STARLINK-5899,PAYLOAD,2024-02-04 09:14:22,14.98332104,0.0002857,70.0001,31.7048,268.5381,91.5451,1.3825e-05,7.2e-07,0.0,0 STARLINK-5899,1 55949U 23037AM  24035.38498176  .00000072  00000-0  13825-4 0  9999,2 55949  70.0001  31.7048 0002857 268.5381  91.5451 14.98332104 49980,6950.186,96.107,574.037,570.066,0.0
55949.0,STARLINK-5899,PAYLOAD,2024-02-05 09:16:23,14.98329238,0.0002846,70.0004,29.1808,266.2372,93.8462,2.6413e-05,2.22e-06,0.0,0 STARLINK-5899,1 55949U 23037AM  24036.38638306  .00000222  00000-0  26413-4 0  9995,2 55949  70.0004  29.1808 0002846 266.2372  93.8462 14.98329238 50478,6950.195,96.107,574.038,570.082,0.0
55949.0,STARLINK-5899,PAYLOAD,2024-02-06 09:18:24,14.98334938,0.0002807,70.0007,26.6561,265.2911,94.7928,4.3052e-05,4.21e-06,0.0,0 STARLINK-5899,1 55949U 23037AM  24037.38777801  .00000421  00000-0  43052-4 0  9999,2 55949  70.0007  26.6561 0002807 265.2911  94.7928 14.98334938 50621,6950.178,96.107,573.994,570.092,0.0
55949.0,STARLINK-5899,PAYLOAD,2024-02-07 09:20:25,14.98331872,0.000269,70.0008,24.1308,256.224,103.862,4.0027e-06,-4.5e-07,0.0,0 STARLINK-5899,1 55949U 23037AM  24038.38917894 -.00000045  00000-0  40027-5 0  9991,2 55949  70.0008  24.1308 0002690 256.2240 103.8620 14.98331872 50770,6950.187,96.107,573.922,570.183,0.0
55949.0,STARLINK-5899,PAYLOAD,2024-02-07 15:44:57,14.98330344,0.0002636,70.0012,23.4569,271.9089,88.1768,-2.3486e-05,-3.73e-06,0.0,0 STARLINK-5899,1 55949U 23037AM  24038.65622157 -.00000373  00000-0 -23486-4 0  9990,2 55949  70.0012  23.4569 0002636 271.9089  88.1768 14.98330344 50479,6950.192,96.107,573.889,570.225,0.0
